OBJECT_NAME,OBJECT_ID,EPOCH,MEAN_MOTION,ECCENTRICITY,INCLINATION,RA_OF_ASC_NODE,ARG_OF_PERICENTER,MEAN_ANOMALY,EPHEMERIS_TYPE,CLASSIFICATION_TYPE,NORAD_CAT_ID,ELEMENT_SET_NO,REV_AT_EPOCH,BSTAR,MEAN_MOTION_DOT,MEAN_MOTION_DDOT
HYLAS 2,2012-043B,2026-06-07T05:14:38.610816,1.00271836,.0002778,2.4007,81.1891,17.6434,162.8920,0,U,38741,999,5067,0,-.243E-5,0
INTELSAT 21 (IS-21),2012-045A,2026-06-07T04:35:46.643712,1.00272646,.00020371,0.0435,86.4307,357.2616,182.8673,0,U,38749,999,5042,0,-.271E-5,0
ASTRA 2F,2012-051A,2026-06-07T05:00:19.295424,1.00272970,.00009661,0.0473,256.4689,273.4321,188.9798,0,U,38778,999,4103,0,.164E-5,0
GSAT-10,2012-051B,2026-06-07T03:33:22.199040,1.00271795,.00080033,0.0171,262.4199,186.5141,302.9972,0,U,38779,999,4999,0,-.151E-5,0
INTELSAT 23 (IS-23),2012-057A,2026-06-07T06:07:48.628416,1.00275888,.00005734,0.0126,327.3337,121.5820,205.6922,0,U,38867,999,4985,0,-.27E-5,0
BEIDOU-2 G6,2012-059A,2026-06-06T20:57:21.665088,1.00275119,.00103878,4.3949,73.6308,324.3452,255.6355,0,U,38953,999,4980,0,-.162E-5,0
LUCH-5B,2012-061A,2026-06-06T23:39:42.670656,1.00274188,.00017557,10.4589,49.9805,137.0640,46.9761,0,U,38977,999,4950,0,-.126E-5,0
YAMAL 300K,2012-061B,2026-06-07T05:44:29.993856,1.00271221,.00011153,0.0137,267.8782,312.4959,304.3579,0,U,38978,999,4953,0,.85E-6,0
STAR ONE C3,2012-062A,2026-06-07T06:35:14.284032,1.00269978,.00025679,0.0178,353.7967,99.1135,186.5858,0,U,38991,999,4966,0,-.235E-5,0
EUTELSAT 21B,2012-062B,2026-06-07T04:58:26.973696,1.00270520,.00030174,0.0657,350.7624,81.2324,279.8049,0,U,38992,999,4972,0,.144E-5,0
ECHOSTAR 16,2012-065A,2026-06-07T04:01:38.618112,1.00270485,.00016535,0.0179,347.8372,96.2792,170.3824,0,U,39008,999,4954,0,-.268E-5,0
ZHONGXING-12,2012-067A,2026-06-07T02:52:21.429408,1.00271409,.00033565,0.0482,96.3930,336.6816,313.0531,0,U,39017,999,4940,0,-.193E-5,0
EUTELSAT 70B,2012-069A,2026-06-07T03:13:38.943264,1.00271560,.0003972,0.0613,353.3612,75.6662,305.4125,0,U,39020,999,4940,0,-.29E-6,0
YAMAL 402,2012-070A,2026-06-07T05:07:56.064576,1.00271629,.00039202,1.2386,84.2872,348.4470,314.7682,0,U,39022,999,4929,0,.1E-5,0
SKYNET 5D,2012-075A,2026-06-07T05:07:26.113152,1.00272593,.00038766,0.0661,359.5528,84.9715,300.7340,0,U,39034,999,4905,0,.113E-5,0
MEXSAT 3,2012-075B,2026-06-07T06:02:12.323328,1.00269028,.000141,0.0233,74.8954,353.9693,162.5612,0,U,39035,999,695,0,-.11E-6,0
TDRS 11,2013-004A,2026-06-07T07:40:54.955200,1.00265987,.00056663,3.5069,31.1026,15.5930,149.9793,0,U,39070,999,4659,0,.93E-6,0
AMAZONAS 3,2013-006A,2026-06-07T04:01:38.618112,1.00270545,.00021935,0.0292,188.6820,279.8679,146.4475,0,U,39078,999,4481,0,-.268E-5,0
AZERSPACE 1,2013-006B,2026-06-07T05:05:26.304000,1.00272178,.00014432,0.0339,75.4552,29.1936,273.3194,0,U,39079,999,4870,0,.147E-5,0
SBIRS GEO-2 (USA 241),2013-011A,2026-06-07T04:38:06.424224,1.00271355,.00021084,4.4690,52.5057,17.0216,205.7905,0,U,39120,999,4843,0,-.273E-5,0
EUTELSAT 117 WEST A,2013-012A,2026-06-07T06:01:42.371040,1.00272034,.00028581,0.0418,62.1073,17.7589,149.4162,0,U,39122,999,4833,0,.1E-7,0
ANIK G1,2013-014A,2026-06-07T06:04:19.619904,1.00271993,.00017595,0.0438,87.1527,342.2430,170.0432,0,U,39127,999,4815,0,-.6E-6,0
ZHONGXING-11,2013-020A,2026-06-07T02:52:21.429408,1.00274401,.00025469,0.0291,36.3565,33.6212,326.5468,0,U,39157,999,4779,0,-.277E-5,0
EUTELSAT 7B,2013-022A,2026-06-07T04:54:19.868832,1.00271114,.00051,0.0678,8.3785,27.4437,300.3705,0,U,39163,999,4784,0,.62E-6,0
WGS F5 (USA 243),2013-024A,2026-06-07T04:01:38.618112,1.00268763,.00002219,0.0190,309.7978,172.9476,140.7417,0,U,39168,999,4707,0,-.27E-5,0
SES-6,2013-026A,2026-06-07T04:40:43.673088,1.00270754,.00027249,0.0235,316.4616,136.7897,192.0422,0,U,39172,999,4762,0,-.247E-5,0
IRNSS-1A,2013-034A,2026-05-22T20:37:38.469792,1.00280263,.00166187,35.6649,64.2334,185.3754,355.4646,0,U,39199,999,4711,0,.59E-6,0
MUOS-2,2013-036A,2026-06-06T21:08:04.768800,1.00271422,.00506132,4.9757,45.5201,178.0355,160.6919,0,U,39206,999,4708,0,0,0
ALPHASAT,2013-038A,2026-06-07T04:59:26.879136,1.00264344,.00017934,2.9982,1.4177,68.4683,285.4521,0,U,39215,999,4391,0,.146E-5,0
INSAT-3D,2013-038B,2026-06-06T12:22:34.180896,1.00268069,.00008063,1.8977,82.6765,350.3630,137.0203,0,U,39216,999,4697,0,-.326E-5,0
WGS F6 (USA 244),2013-041A,2026-06-07T06:24:22.682016,1.00268278,.0000182,0.0180,349.0114,167.5947,59.9969,0,U,39222,999,4596,0,.103E-5,0
ES'HAIL 1,2013-044A,2026-06-07T04:59:34.367424,1.00270553,.00024208,0.0481,359.7427,72.4010,283.8406,0,U,39233,999,4652,0,.157E-5,0
