HYLAS 2                 
1 38741U 12043B   26158.21850244 -.00000243  00000+0  00000+0 0  9999
2 38741   2.4007  81.1891 0002778  17.6434 162.8920  1.00271836 50679
INTELSAT 21 (IS-21)     
1 38749U 12045A   26158.19151208 -.00000271  00000+0  00000+0 0  9991
2 38749   0.0435  86.4307 0002037 357.2616 182.8673  1.00272646 50429
ASTRA 2F                
1 38778U 12051A   26158.20855666  .00000164  00000+0  00000+0 0  9991
2 38778   0.0473 256.4689 0000966 273.4321 188.9798  1.00272970 41038
GSAT-10                 
1 38779U 12051B   26158.14817360 -.00000151  00000+0  00000+0 0  9991
2 38779   0.0171 262.4199 0008003 186.5141 302.9972  1.00271795 49990
INTELSAT 23 (IS-23)     
1 38867U 12057A   26158.25542394 -.00000270  00000+0  00000+0 0  9991
2 38867   0.0126 327.3337 0000573 121.5820 205.6922  1.00275888 49856
BEIDOU-2 G6             
1 38953U 12059A   26157.87316742 -.00000162  00000+0  00000+0 0  9992
2 38953   4.3949  73.6308 0010388 324.3452 255.6355  1.00275119 49807
LUCH-5B                 
1 38977U 12061A   26157.98591054 -.00000126  00000+0  00000+0 0  9994
2 38977  10.4589  49.9805 0001756 137.0640  46.9761  1.00274188 49500
YAMAL 300K              
1 38978U 12061B   26158.23923604  .00000085  00000+0  00000+0 0  9997
2 38978   0.0137 267.8782 0001115 312.4959 304.3579  1.00271221 49537
STAR ONE C3             
1 38991U 12062A   26158.27447088 -.00000235  00000+0  00000+0 0  9992
2 38991   0.0178 353.7967 0002567  99.1135 186.5858  1.00269978 49664
EUTELSAT 21B            
1 38992U 12062B   26158.20725664  .00000144  00000+0  00000+0 0  9993
2 38992   0.0657 350.7624 0003017  81.2324 279.8049  1.00270520 49727
ECHOSTAR 16             
1 39008U 12065A   26158.16780808 -.00000268  00000+0  00000+0 0  9999
2 39008   0.0179 347.8372 0001654  96.2792 170.3824  1.00270485 49548
ZHONGXING-12            
1 39017U 12067A   26158.11969247 -.00000193  00000+0  00000+0 0  9999
2 39017   0.0482  96.3930 0003357 336.6816 313.0531  1.00271409 49404
EUTELSAT 70B            
1 39020U 12069A   26158.13447851 -.00000029  00000+0  00000+0 0  9997
2 39020   0.0613 353.3612 0003972  75.6662 305.4125  1.00271560 49401
YAMAL 402               
1 39022U 12070A   26158.21384334  .00000100  00000+0  00000+0 0  9995
2 39022   1.2386  84.2872 0003920 348.4470 314.7682  1.00271629 49296
SKYNET 5D               
1 39034U 12075A   26158.21349668  .00000113  00000+0  00000+0 0  9998
2 39034   0.0661 359.5528 0003876  84.9715 300.7340  1.00272593 49053
MEXSAT 3                
1 39035U 12075B   26158.25153152 -.00000011  00000+0  00000+0 0  9992
2 39035   0.0233  74.8954 0001410 353.9693 162.5612  1.00269028  6952
TDRS 11                 
1 39070U 13004A   26158.32008050  .00000093  00000+0  00000+0 0  9997
2 39070   3.5069  31.1026 0005666  15.5930 149.9793  1.00265987 46597
AMAZONAS 3              
1 39078U 13006A   26158.16780808 -.00000268  00000+0  00000+0 0  9992
2 39078   0.0292 188.6820 0002193 279.8679 146.4475  1.00270545 44810
AZERSPACE 1             
1 39079U 13006B   26158.21211000  .00000147  00000+0  00000+0 0  9997
2 39079   0.0339  75.4552 0001443  29.1936 273.3194  1.00272178 48701
SBIRS GEO-2 (USA 241)   
1 39120U 13011A   26158.19312991 -.00000273  00000+0  00000+0 0  9999
2 39120   4.4690  52.5057 0002108  17.0216 205.7905  1.00271355 48433
EUTELSAT 117 WEST A     
1 39122U 13012A   26158.25118485  .00000001  00000+0  00000+0 0  9999
2 39122   0.0418  62.1073 0002858  17.7589 149.4162  1.00272034 48335
ANIK G1                 
1 39127U 13014A   26158.25300486 -.00000060  00000+0  00000+0 0  9996
2 39127   0.0438  87.1527 0001759 342.2430 170.0432  1.00271993 48156
ZHONGXING-11            
1 39157U 13020A   26158.11969247 -.00000277  00000+0  00000+0 0  9997
2 39157   0.0291  36.3565 0002547  33.6212 326.5468  1.00274401 47792
EUTELSAT 7B             
1 39163U 13022A   26158.20439663  .00000062  00000+0  00000+0 0  9991
2 39163   0.0678   8.3785 0005100  27.4437 300.3705  1.00271114 47847
WGS F5 (USA 243)        
1 39168U 13024A   26158.16780808 -.00000270  00000+0  00000+0 0  9995
2 39168   0.0190 309.7978 0000222 172.9476 140.7417  1.00268763 47079
SES-6                   
1 39172U 13026A   26158.19494992 -.00000247  00000+0  00000+0 0  9995
2 39172   0.0235 316.4616 0002724 136.7897 192.0422  1.00270754 47622
IRNSS-1A                
1 39199U 13034A   26142.85947303  .00000059  00000+0  00000+0 0  9998
2 39199  35.6649  64.2334 0016618 185.3754 355.4646  1.00280263 47111
MUOS-2                  
1 39206U 13036A   26157.88061074  .00000000  00000+0  00000+0 0  9996
2 39206   4.9757  45.5201 0050613 178.0355 160.6919  1.00271422 47085
ALPHASAT                
1 39215U 13038A   26158.20794999  .00000146  00000+0  00000+0 0  9995
2 39215   2.9982   1.4177 0001793  68.4683 285.4521  1.00264344 43915
INSAT-3D                
1 39216U 13038B   26157.51567339 -.00000326  00000+0  00000+0 0  9996
2 39216   1.8977  82.6765 0000806 350.3630 137.0203  1.00268069 46977
WGS F6 (USA 244)        
1 39222U 13041A   26158.26692919  .00000103  00000+0  00000+0 0  9995
2 39222   0.0180 349.0114 0000182 167.5947  59.9969  1.00268278 45966
ES'HAIL 1               
1 39233U 13044A   26158.20803666  .00000157  00000+0  00000+0 0  9996
2 39233   0.0481 359.7427 0002420  72.4010 283.8406  1.00270553 46525
